NORAD_CAT_ID,OBJECT_NAME,OBJECT_TYPE,EPOCH,MEAN_MOTION,ECCENTRICITY,INCLINATION,RA_OF_ASC_NODE,ARG_OF_PERICENTER,MEAN_ANOMALY,BSTAR,MEAN_MOTION_DOT,MEAN_MOTION_DDOT,TLE_LINE0,TLE_LINE1,TLE_LINE2,SEMIMAJOR_AXIS,PERIOD,APOGEE,PERIGEE,DECAYED
53252.0,STARLINK-4132,PAYLOAD,2023-04-29 05:44:00,15.08845181,0.0001399,53.2164,207.2819,76.302,283.8128,8.1346e-05,1.007e-05,0.0,0 STARLINK-4132,1 53252U 22086L   23119.23888971  .00001007  00000-0  81346-4 0  9991,2 53252  53.2164 207.2819 0001399  76.3020 283.8128 15.08845181 43054,6917.865,95.437,540.697,538.762,0.0
53252.0,STARLINK-4132,PAYLOAD,2023-04-29 12:05:32,15.08844827,0.0001382,53.2166,206.092,76.9367,283.1779,4.9742e-05,5.04e-06,0.0,0 STARLINK-4132,1 53252U 22086L   23119.50384973  .00000504  00000-0  49742-4 0  9999,2 53252  53.2166 206.0920 0001382  76.9367 283.1779 15.08844827 43295,6917.866,95.437,540.687,538.775,0.0
53252.0,STARLINK-4132,PAYLOAD,2023-04-30 11:56:19,15.08841624,0.0001129,53.215,201.6309,77.2304,282.8814,3.8177e-05,3.2e-06,0.0,0 STARLINK-4132,1 53252U 22086L   23120.49744925  .00000320  00000-0  38177-4 0  9992,2 53252  53.2150 201.6309 0001129  77.2304 282.8814 15.08841624 43247,6917.875,95.437,540.521,538.959,0.0
53252.0,STARLINK-4132,PAYLOAD,2023-05-01 05:25:34,15.08833661,0.0001244,53.2154,198.3618,73.875,286.2379,3.3389e-05,2.43e-06,0.0,0 STARLINK-4132,1 53252U 22086L   23121.22609497  .00000243  00000-0  33389-4 0  9992,2 53252  53.2154 198.3618 0001244  73.8750 286.2379 15.08833661 43359,6917.9,95.438,540.625,538.904,0.0
53252.0,STARLINK-4132,PAYLOAD,2023-05-01 13:22:30,15.08836441,0.0001279,53.2169,196.8712,102.1622,257.9513,-2.739e-05,-7.24e-06,0.0,0 STARLINK-4132,1 53252U 22086L   23121.55729286 -.00000724  00000-0 -27390-4 0  9998,2 53252  53.2169 196.8712 0001279 102.1622 257.9513 15.08836441 43607,6917.891,95.438,540.641,538.871,0.0
53252.0,STARLINK-4132,PAYLOAD,2023-05-01 14:57:53,15.08837735,0.0001104,53.2156,196.5722,103.108,257.0035,9.9578e-06,-1.29e-06,0.0,0 STARLINK-4132,1 53252U 22086L   23121.62353190 -.00000129  00000-0  99578-5 0  9999,2 53252  53.2156 196.5722 0001104 103.1080 257.0035 15.08837735 43615,6917.887,95.438,540.516,538.989,0.0
53252.0,STARLINK-4132,PAYLOAD,2023-05-02 05:16:21,15.0884274,0.0001145,53.2155,193.8968,98.1114,262.0008,0.00021527,3.14e-05,0.0,0 STARLINK-4132,1 53252U 22086L   23122.21969138  .00003140  00000-0  21527-3 0  9992,2 53252  53.2155 193.8968 0001145  98.1114 262.0008 15.08842740 43508,6917.872,95.437,540.529,538.945,0.0
53252.0,STARLINK-4132,PAYLOAD,2023-05-02 13:13:16,15.08857069,0.0001086,53.2156,192.4103,84.9551,275.1565,0.00045249,6.924e-05,0.0,0 STARLINK-4132,1 53252U 22086L   23122.55088677  .00006924  00000-0  45249-3 0  9999,2 53252  53.2156 192.4103 0001086  84.9551 275.1565 15.08857069 43757,6917.828,95.436,540.444,538.942,0.0
53252.0,STARLINK-4132,PAYLOAD,2023-05-02 14:48:39,15.08859387,0.0001102,53.2157,192.113,83.0465,277.0652,0.00057912,8.946e-05,0.0,0 STARLINK-4132,1 53252U 22086L   23122.61712688  .00008946  00000-0  57912-3 0  9998,2 53252  53.2157 192.1130 0001102  83.0465 277.0652 15.08859387 43762,6917.821,95.436,540.448,538.924,0.0
53252.0,STARLINK-4132,PAYLOAD,2023-05-03 05:07:08,15.08842891,0.0001187,53.2156,189.4367,101.8978,258.2147,0.00013097,1.797e-05,0.0,0 STARLINK-4132,1 53252U 22086L   23123.21329256  .00001797  00000-0  13097-3 0  9993,2 53252  53.2156 189.4367 0001187 101.8978 258.2147 15.08842891 43653,6917.872,95.437,540.558,538.915,0.0
53252.0,STARLINK-4132,PAYLOAD,2023-05-03 11:28:41,15.08839656,0.0001023,53.2157,188.2473,95.8289,264.282,3.012e-05,1.92e-06,0.0,0 STARLINK-4132,1 53252U 22086L   23123.47825232  .00000192  00000-0  30120-4 0  9991,2 53252  53.2157 188.2473 0001023  95.8289 264.2820 15.08839656 43891,6917.881,95.438,540.454,539.039,0.0
53252.0,STARLINK-4132,PAYLOAD,2023-05-04 04:57:55,15.08838508,0.0001055,53.2171,184.9784,90.5657,269.5456,1.0725e-05,-1.17e-06,0.0,0 STARLINK-4132,1 53252U 22086L   23124.20689466 -.00000117  00000-0  10725-4 0  9997,2 53252  53.2171 184.9784 0001055  90.5657 269.5456 15.08838508 43800,6917.885,95.438,540.48,539.02,0.0
53252.0,STARLINK-4132,PAYLOAD,2023-05-04 12:54:51,15.08843623,9.79e-05,53.2149,183.4899,89.3606,270.7498,0.0001439,2.003e-05,0.0,0 STARLINK-4132,1 53252U 22086L   23124.53809300  .00002003  00000-0  14390-3 0  9990,2 53252  53.2149 183.4899 0000979  89.3606 270.7498 15.08843623 44052,6917.869,95.437,540.412,539.057,0.0
53252.0,STARLINK-4132,PAYLOAD,2023-05-04 20:51:47,15.08836766,0.0001019,53.2147,182.0032,91.9682,268.1426,5.1621e-05,5.34e-06,0.0,0 STARLINK-4132,1 53252U 22086L   23124.86929643  .00000534  00000-0  51621-4 0  9995,2 53252  53.2147 182.0032 0001019  91.9682 268.1426 15.08836766 44101,6917.89,95.438,540.46,539.05,0.0
53252.0,STARLINK-4132,PAYLOAD,2023-05-05 07:59:29,15.08835417,0.0001072,53.2151,179.9217,88.1077,272.0038,9.9292e-05,1.293e-05,0.0,0 STARLINK-4132,1 53252U 22086L   23125.33298012  .00001293  00000-0  99292-4 0  9996,2 53252  53.2151 179.9217 0001072  88.1077 272.0038 15.08835417 43970,6917.894,95.438,540.501,539.018,0.0
53252.0,STARLINK-4132,PAYLOAD,2023-05-05 20:42:34,15.0884021,0.0001121,53.2147,177.5424,85.8374,274.2746,0.00015294,2.147e-05,0.0,0 STARLINK-4132,1 53252U 22086L   23125.86289953  .00002147  00000-0  15294-3 0  9996,2 53252  53.2147 177.5424 0001121  85.8374 274.2746 15.08840210 44257,6917.88,95.438,540.52,538.969,0.0
53252.0,STARLINK-4132,PAYLOAD,2023-05-06 11:01:02,15.0884803,0.0001159,53.2143,174.8658,86.1768,273.9357,0.00020534,2.982e-05,0.0,0 STARLINK-4132,1 53252U 22086L   23126.45905667  .00002982  00000-0  20534-3 0  9999,2 53252  53.2143 174.8658 0001159  86.1768 273.9357 15.08848030 44346,6917.856,95.437,540.523,538.919,0.0
53252.0,STARLINK-4132,PAYLOAD,2023-05-06 20:33:21,15.08847084,0.0001163,53.2142,173.082,86.5868,273.5257,0.00033889,5.111e-05,0.0,0 STARLINK-4132,1 53252U 22086L   23126.85649713  .00005111  00000-0  33889-3 0  9994,2 53252  53.2142 173.0820 0001163  86.5868 273.5257 15.08847084 44205,6917.859,95.437,540.528,538.919,0.0
53252.0,STARLINK-4132,PAYLOAD,2023-05-07 09:16:26,15.08851249,0.0001132,53.2141,170.7024,87.5181,272.5941,0.00023318,3.426e-05,0.0,0 STARLINK-4132,1 53252U 22086L   23127.38641277  .00003426  00000-0  23318-3 0  9993,2 53252  53.2141 170.7024 0001132  87.5181 272.5941 15.08851249 44486,6917.846,95.437,540.494,538.928,0.0
53252.0,STARLINK-4132,PAYLOAD,2023-05-07 20:24:08,15.08847663,0.0001148,53.2138,168.6214,84.4267,275.6856,0.00015515,2.183e-05,0.0,0 STARLINK-4132,1 53252U 22086L   23127.85009317  .00002183  00000-0  15515-3 0  9997,2 53252  53.2138 168.6214 0001148  84.4267 275.6856 15.08847663 44357,6917.857,95.437,540.516,538.928,0.0
53252.0,STARLINK-4132,PAYLOAD,2023-05-08 09:07:13,15.08834474,0.0001407,53.2145,166.2454,78.2572,281.8578,-5.8779e-05,-1.223e-05,0.0,0 STARLINK-4132,1 53252U 22086L   23128.38002112 -.00001223  00000-0 -58779-4 0  9998,2 53252  53.2145 166.2454 0001407  78.2572 281.8578 15.08834474 44438,6917.897,95.438,540.736,538.789,0.0
53252.0,STARLINK-4132,PAYLOAD,2023-05-08 12:18:00,15.08838774,0.0001434,53.2169,165.6496,82.5255,277.59,-9.1636e-06,-4.34e-06,0.0,0 STARLINK-4132,1 53252U 22086L   23128.51250107 -.00000434  00000-0 -91636-5 0  9995,2 53252  53.2169 165.6496 0001434  82.5255 277.5900 15.08838774 44651,6917.884,95.438,540.741,538.757,0.0
53252.0,STARLINK-4132,PAYLOAD,2023-05-09 12:08:46,15.08842208,0.000146,53.2174,161.1883,100.7165,259.3991,7.9458e-05,9.77e-06,0.0,0 STARLINK-4132,1 53252U 22086L   23129.50609412  .00000977  00000-0  79458-4 0  9999,2 53252  53.2174 161.1883 0001460 100.7165 259.3991 15.08842208 44802,6917.874,95.437,540.749,538.729,0.0
53252.0,STARLINK-4132,PAYLOAD,2023-05-10 10:24:10,15.08837745,0.0001411,53.2166,157.026,95.9255,264.1898,0.00010191,1.334e-05,0.0,0 STARLINK-4132,1 53252U 22086L   23130.43345975  .00001334  00000-0  10191-3 0  9990,2 53252  53.2166 157.0260 0001411  95.9255 264.1898 15.08837745 44942,6917.887,95.438,540.728,538.776,0.0
53252.0,STARLINK-4132,PAYLOAD,2023-05-10 18:21:06,15.08836929,0.0001322,53.2161,155.5377,87.326,272.7883,7.9993e-05,9.85e-06,0.0,0 STARLINK-4132,1 53252U 22086L   23130.76466171  .00000985  00000-0  79993-4 0  9995,2 53252  53.2161 155.5377 0001322  87.3260 272.7883 15.08836929 44998,6917.89,95.438,540.669,538.84,0.0
53252.0,STARLINK-4132,PAYLOAD,2023-05-11 07:04:11,15.08838377,0.0001299,53.2158,153.159,93.4979,266.6161,5.076e-05,5.2e-06,0.0,0 STARLINK-4132,1 53252U 22086L   23131.29458267  .00000520  00000-0  50760-4 0  9997,2 53252  53.2158 153.1590 0001299  93.4979 266.6161 15.08838377 45073,6917.885,95.438,540.649,538.852,0.0
53252.0,STARLINK-4132,PAYLOAD,2023-05-11 18:11:54,15.08831479,0.0001272,53.2157,151.0778,97.9098,262.2039,0.00015174,2.127e-05,0.0,0 STARLINK-4132,1 53252U 22086L   23131.75826586  .00002127  00000-0  15174-3 0  9995,2 53252  53.2157 151.0778 0001272  97.9098 262.2039 15.08831479 44946,6917.906,95.438,540.651,538.891,0.0
53252.0,STARLINK-4132,PAYLOAD,2023-05-12 08:30:22,15.08835802,0.0001263,53.2157,148.4017,89.1934,270.9203,1.4284e-05,-6.1e-07,0.0,0 STARLINK-4132,1 53252U 22086L   23132.35442815 -.00000061  00000-0  14284-4 0  9999,2 53252  53.2157 148.4017 0001263  89.1934 270.9203 15.08835802 45230,6917.893,95.438,540.632,538.884,0.0
53252.0,STARLINK-4132,PAYLOAD,2023-05-13 05:10:23,15.08839464,0.0001226,53.2161,144.5373,93.6506,266.4626,6.6219e-05,7.66e-06,0.0,0 STARLINK-4132,1 53252U 22086L   23133.21554591  .00000766  00000-0  66219-4 0  9996,2 53252  53.2161 144.5373 0001226  93.6506 266.4626 15.08839464 45160,6917.882,95.438,540.595,538.899,0.0
53252.0,STARLINK-4132,PAYLOAD,2023-05-13 08:21:09,15.08840229,0.0001238,53.2161,143.9438,94.9911,265.1223,7.8751e-05,9.66e-06,0.0,0 STARLINK-4132,1 53252U 22086L   23133.34802535  .00000966  00000-0  78751-4 0  9990,2 53252  53.2161 143.9438 0001238  94.9911 265.1223 15.08840229 45386,6917.88,95.438,540.601,538.888,0.0
